{
  "type": "FeatureCollection",
  "features": [
    {
      "type": "Feature",
      "properties": {
        "norad_id": 30728,
        "name": "FENGYUN 1C DEB",
        "group": "fengyun-1c-debris",
        "lat": 14.3065537026251,
        "lon": -178.56159153863393,
        "alt_km": 827.1537106665701,
        "timestamp": "2025-12-18T17:50:15.235299+00:00",
        "meta_object_name": "FENGYUN 1C DEB",
        "meta_object_id": "1999-025ASN",
        "meta_epoch": "2025-12-18T06:57:04.472640",
        "meta_mean_motion": 14.23476336,
        "meta_eccentricity": 0.00994498,
        "meta_inclination": 98.5292,
        "meta_ra_of_asc_node": 358.8054,
        "meta_arg_of_pericenter": 65.9982,
        "meta_mean_anomaly": 295.1569,
        "meta_ephemeris_type": 0,
        "meta_classification_type": "U",
        "meta_norad_cat_id": 30728,
        "meta_element_set_no": 999,
        "meta_rev_at_epoch": 97768,
        "meta_bstar": 6.7933198e-05,
        "meta_mean_motion_dot": 1.21e-06,
        "meta_mean_motion_ddot": 0,
        "tle_line1": "1 30728U 99025ASN 25352.28963510  .00000121  00000+0  67933-4 0  9991",
        "tle_line2": "2 30728  98.5292 358.8054 0099449  65.9982 295.1569 14.23476336977687"
      },
      "geometry": {
        "type": "Point",
        "coordinates": [
          -178.56159153863393,
          14.3065537026251
        ]
      }
    },
    {
      "type": "Feature",
      "properties": {
        "norad_id": 30730,
        "name": "FENGYUN 1C DEB",
        "group": "fengyun-1c-debris",
        "lat": 32.59327514598913,
        "lon": -142.6736089782931,
        "alt_km": 828.2110352531172,
        "timestamp": "2025-12-18T17:50:15.235309+00:00",
        "meta_object_name": "FENGYUN 1C DEB",
        "meta_object_id": "1999-025ASQ",
        "meta_epoch": "2025-12-18T02:17:26.290752",
        "meta_mean_motion": 14.25500172,
        "meta_eccentricity": 0.00780738,
        "meta_inclination": 98.6181,
        "meta_ra_of_asc_node": 31.1255,
        "meta_arg_of_pericenter": 33.7247,
        "meta_mean_anomaly": 29.9192,
        "meta_ephemeris_type": 0,
        "meta_classification_type": "U",
        "meta_norad_cat_id": 30730,
        "meta_element_set_no": 999,
        "meta_rev_at_epoch": 97082,
        "meta_bstar": 0.00078961866,
        "meta_mean_motion_dot": 1.884e-05,
        "meta_mean_motion_ddot": 0,
        "tle_line1": "1 30730U 99025ASQ 25352.09544318  .00001884  00000+0  78962-3 0  9994",
        "tle_line2": "2 30730  98.6181  31.1255 0078073  33.7247  29.9192 14.25500172970821"
      },
      "geometry": {
        "type": "Point",
        "coordinates": [
          -142.6736089782931,
          32.59327514598913
        ]
      }
    },
    {
      "type": "Feature",
      "properties": {
        "norad_id": 30731,
        "name": "FENGYUN 1C DEB",
        "group": "fengyun-1c-debris",
        "lat": -52.830487904774934,
        "lon": 84.24798301775232,
        "alt_km": 756.9929716871866,
        "timestamp": "2025-12-18T17:50:15.235319+00:00",
        "meta_object_name": "FENGYUN 1C DEB",
        "meta_object_id": "1999-025ASR",
        "meta_epoch": "2025-12-17T22:22:53.031072",
        "meta_mean_motion": 14.41837117,
        "meta_eccentricity": 0.00153537,
        "meta_inclination": 98.86,
        "meta_ra_of_asc_node": 71.5352,
        "meta_arg_of_pericenter": 231.0788,
        "meta_mean_anomaly": 189.5737,
        "meta_ephemeris_type": 0,
        "meta_classification_type": "U",
        "meta_norad_cat_id": 30731,
        "meta_element_set_no": 999,
        "meta_rev_at_epoch": 97431,
        "meta_bstar": 0.0016626414,
        "meta_mean_motion_dot": 5.4e-05,
        "meta_mean_motion_ddot": 0,
        "tle_line1": "1 30731U 99025ASR 25351.93255823  .00005400  00000+0  16626-2 0  9993",
        "tle_line2": "2 30731  98.8600  71.5352 0015353 231.0788 189.5737 14.41837117974317"
      },
      "geometry": {
        "type": "Point",
        "coordinates": [
          84.24798301775232,
          -52.830487904774934
        ]
      }
    },
    {
      "type": "Feature",
      "properties": {
        "norad_id": 30732,
        "name": "FENGYUN 1C DEB",
        "group": "fengyun-1c-debris",
        "lat": -41.42351679093761,
        "lon": 20.52967756953756,
        "alt_km": 938.8250622745809,
        "timestamp": "2025-12-18T17:50:15.235329+00:00",
        "meta_object_name": "FENGYUN 1C DEB",
        "meta_object_id": "1999-025ASS",
        "meta_epoch": "2025-12-18T06:41:39.603840",
        "meta_mean_motion": 14.03909251,
        "meta_eccentricity": 0.01239361,
        "meta_inclination": 98.8041,
        "meta_ra_of_asc_node": 12.2203,
        "meta_arg_of_pericenter": 193.461,
        "meta_mean_anomaly": 298.1306,
        "meta_ephemeris_type": 0,
        "meta_classification_type": "U",
        "meta_norad_cat_id": 30732,
        "meta_element_set_no": 999,
        "meta_rev_at_epoch": 96269,
        "meta_bstar": 0.00020875728,
        "meta_mean_motion_dot": 3.1e-06,
        "meta_mean_motion_ddot": 0,
        "tle_line1": "1 30732U 99025ASS 25352.27893060  .00000310  00000+0  20876-3 0  9991",
        "tle_line2": "2 30732  98.8041  12.2203 0123936 193.4610 298.1306 14.03909251962690"
      },
      "geometry": {
        "type": "Point",
        "coordinates": [
          20.52967756953756,
          -41.42351679093761
        ]
      }
    },
    {
      "type": "Feature",
      "properties": {
        "norad_id": 30735,
        "name": "FENGYUN 1C DEB",
        "group": "fengyun-1c-debris",
        "lat": -77.19948841573124,
        "lon": -158.97474672677762,
        "alt_km": 782.5658803222186,
        "timestamp": "2025-12-18T17:50:15.235339+00:00",
        "meta_object_name": "FENGYUN 1C DEB",
        "meta_object_id": "1999-025ASV",
        "meta_epoch": "2025-12-17T03:39:29.833632",
        "meta_mean_motion": 14.23998681,
        "meta_eccentricity": 0.00602079,
        "meta_inclination": 98.764,
        "meta_ra_of_asc_node": 62.2025,
        "meta_arg_of_pericenter": 232.6761,
        "meta_mean_anomaly": 157.0622,
        "meta_ephemeris_type": 0,
        "meta_classification_type": "U",
        "meta_norad_cat_id": 30735,
        "meta_element_set_no": 999,
        "meta_rev_at_epoch": 96811,
        "meta_bstar": 0.0013372818,
        "meta_mean_motion_dot": 3.084e-05,
        "meta_mean_motion_ddot": 0,
        "tle_line1": "1 30735U 99025ASV 25351.15242863  .00003084  00000+0  13373-2 0  9993",
        "tle_line2": "2 30735  98.7640  62.2025 0060207 232.6761 157.0622 14.23998681968112"
      },
      "geometry": {
        "type": "Point",
        "coordinates": [
          -158.97474672677762,
          -77.19948841573124
        ]
      }
    },
    {
      "type": "Feature",
      "properties": {
        "norad_id": 30736,
        "name": "FENGYUN 1C DEB",
        "group": "fengyun-1c-debris",
        "lat": -62.680748210954974,
        "lon": -167.32363745561946,
        "alt_km": 1222.8442703850396,
        "timestamp": "2025-12-18T17:50:15.235349+00:00",
        "meta_object_name": "FENGYUN 1C DEB",
        "meta_object_id": "1999-025ASW",
        "meta_epoch": "2025-12-17T02:06:23.222592",
        "meta_mean_motion": 13.61651922,
        "meta_eccentricity": 0.02795335,
        "meta_inclination": 98.7804,
        "meta_ra_of_asc_node": 28.5939,
        "meta_arg_of_pericenter": 42.9136,
        "meta_mean_anomaly": 11.775,
        "meta_ephemeris_type": 0,
        "meta_classification_type": "U",
        "meta_norad_cat_id": 30736,
        "meta_element_set_no": 999,
        "meta_rev_at_epoch": 92912,
        "meta_bstar": 0.0014948037,
        "meta_mean_motion_dot": 1.45e-05,
        "meta_mean_motion_ddot": 0,
        "tle_line1": "1 30736U 99025ASW 25351.08776878  .00001450  00000+0  14948-2 0  9998",
        "tle_line2": "2 30736  98.7804  28.5939 0279533  42.9136  11.7750 13.61651922929127"
      },
      "geometry": {
        "type": "Point",
        "coordinates": [
          -167.32363745561946,
          -62.680748210954974
        ]
      }
    },
    {
      "type": "Feature",
      "properties": {
        "norad_id": 30737,
        "name": "FENGYUN 1C DEB",
        "group": "fengyun-1c-debris",
        "lat": 60.11842973473533,
        "lon": -40.37166286757231,
        "alt_km": 814.8968162426845,
        "timestamp": "2025-12-18T17:50:15.235359+00:00",
        "meta_object_name": "FENGYUN 1C DEB",
        "meta_object_id": "1999-025ASX",
        "meta_epoch": "2025-12-18T05:46:23.511360",
        "meta_mean_motion": 14.18261323,
        "meta_eccentricity": 0.00243232,
        "meta_inclination": 98.5795,
        "meta_ra_of_asc_node": 334.3747,
        "meta_arg_of_pericenter": 116.1981,
        "meta_mean_anomaly": 260.2304,
        "meta_ephemeris_type": 0,
        "meta_classification_type": "U",
        "meta_norad_cat_id": 30737,
        "meta_element_set_no": 999,
        "meta_rev_at_epoch": 97111,
        "meta_bstar": 0.00026008746,
        "meta_mean_motion_dot": 4.95e-06,
        "meta_mean_motion_ddot": 0,
        "tle_line1": "1 30737U 99025ASX 25352.24054990  .00000495  00000+0  26009-3 0  9992",
        "tle_line2": "2 30737  98.5795 334.3747 0024323 116.1981 260.2304 14.18261323971114"
      },
      "geometry": {
        "type": "Point",
        "coordinates": [
          -40.37166286757231,
          60.11842973473533
        ]
      }
    }
  ]
}